FENGYUN 1C DEB          
1 38809U 99025EUZ 17345.31922307  .00000209  00000-0  10630-3 0  9994
2 38809  98.8501  27.9334 0239120  31.0698 330.4367 14.11931037279052
